NORAD_CAT_ID,OBJECT_NAME,OBJECT_TYPE,EPOCH,MEAN_MOTION,ECCENTRICITY,INCLINATION,RA_OF_ASC_NODE,ARG_OF_PERICENTER,MEAN_ANOMALY,BSTAR,MEAN_MOTION_DOT,MEAN_MOTION_DDOT,TLE_LINE0,TLE_LINE1,TLE_LINE2,SEMIMAJOR_AXIS,PERIOD,APOGEE,PERIGEE,DECAYED
54774.0,STARLINK-5454,PAYLOAD,2023-09-12 03:26:55,15.08848254,0.0001323,53.2165,151.907,88.3767,271.7376,5.0901e-05,5.22e-06,0.0,0 STARLINK-5454,1 54774U 22175S   23255.14369482  .00000522  00000-0  50901-4 0  9996,2 54774  53.2165 151.9070 0001323  88.3767 271.7376 15.08848254 42826,6917.855,95.437,540.635,538.805,0.0
54774.0,STARLINK-5454,PAYLOAD,2023-09-12 20:56:10,15.08832048,0.0001414,53.2158,148.6342,101.1928,258.9223,-6.0854e-06,-3.85e-06,0.0,0 STARLINK-5454,1 54774U 22175S   23255.87234831 -.00000385  00000-0 -60854-5 0  9993,2 54774  53.2158 148.6342 0001414 101.1928 258.9223 15.08832048 42931,6917.905,95.438,540.748,538.792,0.0
54774.0,STARLINK-5454,PAYLOAD,2023-09-12 22:31:34,15.08832198,0.0001405,53.2176,148.3431,100.277,259.838,5.7293e-06,-1.97e-06,0.0,0 STARLINK-5454,1 54774U 22175S   23255.93858837 -.00000197  00000-0  57293-5 0  9991,2 54774  53.2176 148.3431 0001405 100.2770 259.8380 15.08832198 40783,6917.904,95.438,540.741,538.797,0.0
54774.0,STARLINK-5454,PAYLOAD,2023-09-13 03:17:42,15.08844856,0.0001387,53.2163,147.4417,50.5732,309.5383,0.00010716,1.418e-05,0.0,0 STARLINK-5454,1 54774U 22175S   23256.13729700  .00001418  00000-0  10716-3 0  9993,2 54774  53.2163 147.4417 0001387  50.5732 309.5383 15.08844856 40811,6917.866,95.437,540.69,538.771,0.0
54774.0,STARLINK-5454,PAYLOAD,2023-09-13 20:46:57,15.08844504,0.000124,53.2176,144.1771,86.5695,273.5439,-3.6202e-05,-8.64e-06,0.0,0 STARLINK-5454,1 54774U 22175S   23256.86594201 -.00000864  00000-0 -36202-4 0  9994,2 54774  53.2176 144.1771 0001240  86.5695 273.5439 15.08844504 43081,6917.867,95.437,540.589,538.874,0.0
54774.0,STARLINK-5454,PAYLOAD,2023-09-14 01:33:05,15.08855773,0.0001459,53.2175,143.2846,94.7734,265.3425,6.0385e-05,6.74e-06,0.0,0 STARLINK-5454,1 54774U 22175S   23257.06464922  .00000674  00000-0  60385-4 0  9999,2 54774  53.2175 143.2846 0001459  94.7734 265.3425 15.08855773 40957,6917.832,95.437,540.706,538.688,0.0
54774.0,STARLINK-5454,PAYLOAD,2023-09-14 20:37:45,15.08829502,0.0001365,53.2163,139.7183,81.524,278.5906,-0.00010255,-1.919e-05,0.0,0 STARLINK-5454,1 54774U 22175S   23257.85955649 -.00001919  00000-0 -10255-3 0  9992,2 54774  53.2163 139.7183 0001365  81.5240 278.5906 15.08829502 43235,6917.912,95.438,540.722,538.833,0.0
54774.0,STARLINK-5454,PAYLOAD,2023-09-15 01:23:54,15.08836505,0.0001318,53.2171,138.8246,84.8225,275.2918,-0.00010068,-1.89e-05,0.0,0 STARLINK-5454,1 54774U 22175S   23258.05827185 -.00001890  00000-0 -10068-3 0  9998,2 54774  53.2171 138.8246 0001318  84.8225 275.2918 15.08836505 41103,6917.891,95.438,540.668,538.844,0.0
54774.0,STARLINK-5454,PAYLOAD,2023-09-16 01:14:40,15.08857625,0.0001269,53.2167,134.364,86.9643,273.1494,2.9264e-05,1.78e-06,0.0,0 STARLINK-5454,1 54774U 22175S   23259.05185277  .00000178  00000-0  29264-4 0  9993,2 54774  53.2167 134.3640 0001269  86.9643 273.1494 15.08857625 41257,6917.827,95.436,540.569,538.814,0.0
54774.0,STARLINK-5454,PAYLOAD,2023-09-16 15:33:10,15.08830395,0.0001633,53.2165,131.6885,78.2975,281.82,1.451e-05,-5.7e-07,0.0,0 STARLINK-5454,1 54774U 22175S   23259.64803299 -.00000057  00000-0  14510-4 0  9994,2 54774  53.2165 131.6885 0001633  78.2975 281.8200 15.08830395 41349,6917.91,95.438,540.904,538.645,0.0
54774.0,STARLINK-5454,PAYLOAD,2023-09-17 02:40:51,15.08835859,0.000142,53.2165,129.6063,80.8465,279.2688,5.1468e-05,5.31e-06,0.0,0 STARLINK-5454,1 54774U 22175S   23260.11170948  .00000531  00000-0  51468-4 0  9995,2 54774  53.2165 129.6063 0001420  80.8465 279.2688 15.08835859 41410,6917.893,95.438,540.74,538.776,0.0
54774.0,STARLINK-5454,PAYLOAD,2023-09-17 18:34:42,15.08849506,0.0001342,53.2168,126.6321,86.3443,273.7702,-7.417e-05,-1.468e-05,0.0,0 STARLINK-5454,1 54774U 22175S   23260.77410539 -.00001468  00000-0 -74170-4 0  9997,2 54774  53.2168 126.6321 0001342  86.3443 273.7702 15.08849506 41518,6917.851,95.437,540.645,538.788,0.0
54774.0,STARLINK-5454,PAYLOAD,2023-09-17 21:45:28,15.08854085,0.0001383,53.2168,126.037,89.9583,270.1568,-2.9402e-05,-7.56e-06,0.0,0 STARLINK-5454,1 54774U 22175S   23260.90657993 -.00000756  00000-0 -29402-4 0  9996,2 54774  53.2168 126.0370 0001383  89.9583 270.1568 15.08854085 41536,6917.837,95.437,540.659,538.746,0.0
54774.0,STARLINK-5454,PAYLOAD,2023-09-18 21:36:16,15.08839485,0.0001268,53.2168,121.5768,86.4142,273.6995,3.7094e-05,3.03e-06,0.0,0 STARLINK-5454,1 54774U 22175S   23261.90018670  .00000303  00000-0  37094-4 0  9992,2 54774  53.2168 121.5768 0001268  86.4142 273.6995 15.08839485 43847,6917.882,95.438,540.624,538.87,0.0
54774.0,STARLINK-5454,PAYLOAD,2023-09-18 23:11:39,15.08842001,0.0001292,53.2165,121.2803,84.1058,276.0082,4.4797e-05,4.25e-06,0.0,0 STARLINK-5454,1 54774U 22175S   23261.96642495  .00000425  00000-0  44797-4 0  9999,2 54774  53.2165 121.2803 0001292  84.1058 276.0082 15.08842001 41692,6917.874,95.437,540.633,538.845,0.0
54774.0,STARLINK-5454,PAYLOAD,2023-09-19 18:16:18,15.08833821,0.0001285,53.2165,117.7127,86.9001,273.2138,-0.00016927,-2.98e-05,0.0,0 STARLINK-5454,1 54774U 22175S   23262.76131955 -.00002980  00000-0 -16927-3 0  9995,2 54774  53.2165 117.7127 0001285  86.9001 273.2138 15.08833821 41816,6917.899,95.438,540.653,538.875,0.0
54774.0,STARLINK-5454,PAYLOAD,2023-09-19 23:02:27,15.0883105,0.0001216,53.2167,116.8201,84.9351,275.178,-0.00012718,-2.311e-05,0.0,0 STARLINK-5454,1 54774U 22175S   23262.96004069 -.00002311  00000-0 -12718-3 0  9994,2 54774  53.2167 116.8201 0001216  84.9351 275.1780 15.08831050 44001,6917.908,95.438,540.614,538.932,0.0
54774.0,STARLINK-5454,PAYLOAD,2023-09-20 19:42:28,15.08837101,0.0001238,53.2169,112.9552,104.4556,255.6573,-2.4517e-05,-6.78e-06,0.0,0 STARLINK-5454,1 54774U 22175S   23263.82115933 -.00000678  00000-0 -24517-4 0  9998,2 54774  53.2169 112.9552 0001238 104.4556 255.6573 15.08837101 44138,6917.889,95.438,540.611,538.898,0.0
54774.0,STARLINK-5454,PAYLOAD,2023-09-20 22:53:14,15.088359,0.0001195,53.2168,112.3595,89.0972,271.0157,-8.7979e-06,-4.28e-06,0.0,0 STARLINK-5454,1 54774U 22175S   23263.95364030 -.00000428  00000-0 -87979-5 0  9991,2 54774  53.2168 112.3595 0001195  89.0972 271.0157 15.08835900 41996,6917.893,95.438,540.585,538.931,0.0
54774.0,STARLINK-5454,PAYLOAD,2023-09-21 13:11:42,15.08833167,0.0001247,53.2171,109.6828,81.9643,278.1491,0.00013727,1.897e-05,0.0,0 STARLINK-5454,1 54774U 22175S   23264.54979678  .00001897  00000-0  13727-3 0  9994,2 54774  53.2171 109.6828 0001247  81.9643 278.1491 15.08833167 44245,6917.901,95.438,540.629,538.904,0.0
54774.0,STARLINK-5454,PAYLOAD,2023-09-21 21:08:37,15.08838446,0.0001324,53.2172,108.1988,80.294,279.8202,0.00016524,2.343e-05,0.0,0 STARLINK-5454,1 54774U 22175S   23264.88099262  .00002343  00000-0  16524-3 0  9998,2 54774  53.2172 108.1988 0001324  80.2940 279.8202 15.08838446 44293,6917.885,95.438,540.666,538.834,0.0
54774.0,STARLINK-5454,PAYLOAD,2023-09-22 00:19:23,15.08846161,0.0001182,53.2166,107.599,83.8463,276.2664,0.00021658,3.161e-05,0.0,0 STARLINK-5454,1 54774U 22175S   23265.01346572  .00003161  00000-0  21658-3 0  9996,2 54774  53.2166 107.5990 0001182  83.8463 276.2664 15.08846161 42152,6917.862,95.437,540.544,538.909,0.0
54774.0,STARLINK-5454,PAYLOAD,2023-09-22 17:48:38,15.0884305,0.0001249,53.2157,104.3248,125.1005,235.0104,1.0495e-05,-1.21e-06,0.0,0 STARLINK-5454,1 54774U 22175S   23265.74211347 -.00000121  00000-0  10495-4 0  9999,2 54774  53.2157 104.3248 0001249 125.1005 235.0104 15.08843050 42267,6917.871,95.437,540.6,538.872,0.0
54774.0,STARLINK-5454,PAYLOAD,2023-09-22 20:59:24,15.08845666,0.0001072,53.2166,103.7347,94.7073,265.4041,4.9747e-05,5.04e-06,0.0,0 STARLINK-5454,1 54774U 22175S   23265.87459203  .00000504  00000-0  49747-4 0  9994,2 54774  53.2166 103.7347 0001072  94.7073 265.4041 15.08845666 44444,6917.863,95.437,540.47,538.986,0.0
54774.0,STARLINK-5454,PAYLOAD,2023-09-23 12:53:16,15.08840585,0.0001031,53.2167,100.7594,90.1168,269.9942,-0.00016926,-2.981e-05,0.0,0 STARLINK-5454,1 54774U 22175S   23266.53700102 -.00002981  00000-0 -16926-3 0  9990,2 54774  53.2167 100.7594 0001031  90.1168 269.9942 15.08840585 42381,6917.879,95.438,540.457,539.03,0.0
54774.0,STARLINK-5454,PAYLOAD,2023-09-23 19:14:48,15.08848387,0.0001103,53.2165,99.5713,85.2634,274.8484,-8.6246e-05,-1.66e-05,0.0,0 STARLINK-5454,1 54774U 22175S   23266.80195197 -.00001660  00000-0 -86246-4 0  9998,2 54774  53.2165  99.5713 0001103  85.2634 274.8484 15.08848387 42429,6917.855,95.437,540.483,538.957,0.0
54774.0,STARLINK-5454,PAYLOAD,2023-09-24 12:44:03,15.08837565,0.0001037,53.216,96.302,95.5252,264.5859,9.5148e-06,-1.36e-06,0.0,0 STARLINK-5454,1 54774U 22175S   23267.53059332 -.00000136  00000-0  95148-5 0  9997,2 54774  53.2160  96.3020 0001037  95.5252 264.5859 15.08837565 44695,6917.888,95.438,540.47,539.035,0.0
54774.0,STARLINK-5454,PAYLOAD,2023-09-24 19:05:35,15.08844985,0.0001041,53.216,95.1119,87.471,272.6401,-1.1773e-05,-4.75e-06,0.0,0 STARLINK-5454,1 54774U 22175S   23267.79554981 -.00000475  00000-0 -11773-4 0  9993,2 54774  53.2160  95.1119 0001041  87.4710 272.6401 15.08844985 44737,6917.865,95.437,540.45,539.01,0.0
54774.0,STARLINK-5454,PAYLOAD,2023-09-25 18:56:22,15.08840653,0.0001212,53.217,90.6501,93.0191,267.094,-1.05e-05,-4.55e-06,0.0,0 STARLINK-5454,1 54774U 22175S   23268.78915293 -.00000455  00000-0 -10500-4 0  9995,2 54774  53.2170  90.6501 0001212  93.0191 267.0940 15.08840653 42720,6917.878,95.438,540.582,538.905,0.0
54774.0,STARLINK-5454,PAYLOAD,2023-09-25 20:31:45,15.08841613,0.0001215,53.217,90.3524,93.3915,266.7216,-1.5469e-06,-3.12e-06,0.0,0 STARLINK-5454,1 54774U 22175S   23268.85539191 -.00000312  00000-0 -15469-5 0  9994,2 54774  53.2170  90.3524 0001215  93.3915 266.7216 15.08841613 44891,6917.875,95.437,540.581,538.9,0.0
